*******************************************************************************
Ephemeris / WWW_USER Mon Mar 10 08:27:55 2025 Pasadena, USA      / Horizons    
*******************************************************************************
Target body name: 300163 (2006 VW139)             {source: JPL#20}
Center body name: Earth (399)                     {source: DE441}
Center-site name: Mauna Kea
*******************************************************************************
Start time      : A.D. 2018-Oct-27 04:00:00.0000 UT      
Stop  time      : A.D. 2018-Oct-27 16:11:00.0000 UT      
Step-size       : 1 minutes
*******************************************************************************
Target pole/equ : undefined
Target radii    : undefined                                                    
Center geodetic : 204.5278, 19.8260847, 4.21024   {E-lon(deg),Lat(deg),Alt(km)}
Center cylindric: 204.5278, 6006.35451, 2151.0229 {E-lon(deg),Dxy(km),Dz(km)}
Center pole/equ : ITRF93                          {East-longitude positive}
Center radii    : 6378.137, 6378.137, 6356.752 km {Equator_a, b, pole_c}       
Target primary  : Sun
Vis. interferer : MOON (R_eq= 1737.400) km        {source: DE441}
Rel. light bend : Sun                             {source: DE441}
Rel. lght bnd GM: 1.3271E+11 km^3/s^2                                          
Small-body perts: Yes                             {source: SB441-N16}
Atmos refraction: NO (AIRLESS)
RA format       : HMS
Time format     : CAL 
Calendar mode   : Mixed Julian/Gregorian
RTS-only print  : NO       
EOP file        : eop.250307.p250603                                           
EOP coverage    : DATA-BASED 1962-JAN-20 TO 2025-MAR-07. PREDICTS-> 2025-JUN-02
Units conversion: 1 au= 149597870.700 km, c= 299792.458 km/s, 1 day= 86400.0 s 
Table cut-offs 1: Elevation (-90.0deg=NO ),Airmass (>38.000=NO), Daylight (YES)
Table cut-offs 2: Solar elongation (  0.0,180.0=NO ),Local Hour Angle( 0.0=NO )
Table cut-offs 3: RA/DEC angular rate (     0.0=NO )                           
*******************************************************************************
Initial IAU76/J2000 heliocentric ecliptic osculating elements (au, days, deg.):
  EPOCH=  2457991.5 ! 2017-Aug-26.00 (TDB)         Residual RMS= .24052        
   EC= .2010729135113919   QR= 2.43581750533798    TP= 2457700.5743979034      
   OM= 83.18687361565334   W=  281.0057800900049   IN= 3.240211778004737       
  Equivalent ICRF heliocentric cartesian coordinates (au, au/d):
   X= 5.132894709524352E-01  Y= 2.513143937276953E+00  Z= 1.078150377913554E+00
  VX=-1.001562838274837E-02 VY= 3.317467852193382E-03 VZ= 2.080280624827025E-03
Asteroid physical parameters (km, seconds, rotational period in hours):        
   GM= n.a.                RAD= n.a.               ROTPER= 3240.               
   H= 16.21                G= .150                 B-V= n.a.                   
                           ALBEDO= n.a.            STYP= n.a.                  
*******************************************************************************
 Date__(UT)__HR:MN     R.A._________(ICRF)_________DEC
******************************************************
$$SOE
 2018-Oct-27 04:00 C   11 04 17.069619 +08 46 15.52836
 2018-Oct-27 04:01 C   11 04 17.112013 +08 46 15.29359
 2018-Oct-27 04:02 C   11 04 17.154410 +08 46 15.05883
 2018-Oct-27 04:03 C   11 04 17.196807 +08 46 14.82407
 2018-Oct-27 04:04 C   11 04 17.239207 +08 46 14.58932
 2018-Oct-27 04:05 C   11 04 17.281608 +08 46 14.35457
 2018-Oct-27 04:06 C   11 04 17.324011 +08 46 14.11983
 2018-Oct-27 04:07 C   11 04 17.366416 +08 46 13.88510
 2018-Oct-27 04:08 C   11 04 17.408822 +08 46 13.65037
 2018-Oct-27 04:09 C   11 04 17.451230 +08 46 13.41564
 2018-Oct-27 04:10 C   11 04 17.493639 +08 46 13.18092
 2018-Oct-27 04:11 C   11 04 17.536050 +08 46 12.94621
 2018-Oct-27 04:12 C   11 04 17.578463 +08 46 12.71150
 2018-Oct-27 04:13 C   11 04 17.620877 +08 46 12.47680
 2018-Oct-27 04:14 N   11 04 17.663293 +08 46 12.24210
 2018-Oct-27 04:15 N   11 04 17.705710 +08 46 12.00741
 2018-Oct-27 04:16 N   11 04 17.748129 +08 46 11.77272
 2018-Oct-27 04:17 N   11 04 17.790550 +08 46 11.53804
 2018-Oct-27 04:18 N   11 04 17.832972 +08 46 11.30336
 2018-Oct-27 04:19 N   11 04 17.875396 +08 46 11.06869
 2018-Oct-27 04:20 N   11 04 17.917821 +08 46 10.83403
 2018-Oct-27 04:21 N   11 04 17.960248 +08 46 10.59937
 2018-Oct-27 04:22 N   11 04 18.002676 +08 46 10.36472
 2018-Oct-27 04:23 N   11 04 18.045106 +08 46 10.13007
 2018-Oct-27 04:24 N   11 04 18.087537 +08 46 09.89543
 2018-Oct-27 04:25 N   11 04 18.129970 +08 46 09.66079
 2018-Oct-27 04:26 N   11 04 18.172404 +08 46 09.42616
 2018-Oct-27 04:27 N   11 04 18.214840 +08 46 09.19153
 2018-Oct-27 04:28 N   11 04 18.257277 +08 46 08.95691
 2018-Oct-27 04:29 N   11 04 18.299716 +08 46 08.72230
 2018-Oct-27 04:30 N   11 04 18.342156 +08 46 08.48769
 2018-Oct-27 04:31 N   11 04 18.384598 +08 46 08.25309
 2018-Oct-27 04:32 N   11 04 18.427041 +08 46 08.01849
 2018-Oct-27 04:33 N   11 04 18.469486 +08 46 07.78390
 2018-Oct-27 04:34 N   11 04 18.511931 +08 46 07.54932
 2018-Oct-27 04:35 N   11 04 18.554379 +08 46 07.31474
 2018-Oct-27 04:36 N   11 04 18.596827 +08 46 07.08016
 2018-Oct-27 04:37 N   11 04 18.639278 +08 46 06.84560
 2018-Oct-27 04:38 N   11 04 18.681729 +08 46 06.61103
 2018-Oct-27 04:39 N   11 04 18.724182 +08 46 06.37648
 2018-Oct-27 04:40 A   11 04 18.766636 +08 46 06.14193
 2018-Oct-27 04:41 A   11 04 18.809092 +08 46 05.90738
 2018-Oct-27 04:42 A   11 04 18.851549 +08 46 05.67285
 2018-Oct-27 04:43 A   11 04 18.894007 +08 46 05.43831
 2018-Oct-27 04:44 A   11 04 18.936467 +08 46 05.20379
 2018-Oct-27 04:45 A   11 04 18.978928 +08 46 04.96927
 2018-Oct-27 04:46 A   11 04 19.021390 +08 46 04.73475
 2018-Oct-27 04:47 A   11 04 19.063853 +08 46 04.50024
 2018-Oct-27 04:48 A   11 04 19.106318 +08 46 04.26574
 2018-Oct-27 04:49 A   11 04 19.148784 +08 46 04.03124
 2018-Oct-27 04:50 A   11 04 19.191252 +08 46 03.79675
 2018-Oct-27 04:51 A   11 04 19.233720 +08 46 03.56227
 2018-Oct-27 04:52 A   11 04 19.276190 +08 46 03.32779
 2018-Oct-27 04:53 A   11 04 19.318661 +08 46 03.09332
 2018-Oct-27 04:54 A   11 04 19.361134 +08 46 02.85885
 2018-Oct-27 04:55 A   11 04 19.403607 +08 46 02.62439
 2018-Oct-27 04:56 A   11 04 19.446082 +08 46 02.38994
 2018-Oct-27 04:57 A   11 04 19.488558 +08 46 02.15549
 2018-Oct-27 04:58 A   11 04 19.531035 +08 46 01.92105
 2018-Oct-27 04:59 A   11 04 19.573514 +08 46 01.68661
 2018-Oct-27 05:00 A   11 04 19.615993 +08 46 01.45218
 2018-Oct-27 05:01 A   11 04 19.658474 +08 46 01.21776
 2018-Oct-27 05:02 A   11 04 19.700956 +08 46 00.98334
 2018-Oct-27 05:03 A   11 04 19.743439 +08 46 00.74893
 2018-Oct-27 05:04 A   11 04 19.785923 +08 46 00.51453
 2018-Oct-27 05:05     11 04 19.828408 +08 46 00.28013
 2018-Oct-27 05:06     11 04 19.870895 +08 46 00.04574
 2018-Oct-27 05:07     11 04 19.913382 +08 45 59.81135
 2018-Oct-27 05:08     11 04 19.955871 +08 45 59.57697
 2018-Oct-27 05:09     11 04 19.998360 +08 45 59.34260
 2018-Oct-27 05:10     11 04 20.040851 +08 45 59.10823
 2018-Oct-27 05:11     11 04 20.083343 +08 45 58.87387
 2018-Oct-27 05:12     11 04 20.125836 +08 45 58.63951
 2018-Oct-27 05:13     11 04 20.168330 +08 45 58.40517
 2018-Oct-27 05:14     11 04 20.210825 +08 45 58.17082
 2018-Oct-27 05:15     11 04 20.253321 +08 45 57.93649
 2018-Oct-27 05:16     11 04 20.295818 +08 45 57.70216
 2018-Oct-27 05:17     11 04 20.338316 +08 45 57.46784
 2018-Oct-27 05:18     11 04 20.380815 +08 45 57.23352
 2018-Oct-27 05:19     11 04 20.423315 +08 45 56.99921
 2018-Oct-27 05:20     11 04 20.465816 +08 45 56.76490
 2018-Oct-27 05:21     11 04 20.508318 +08 45 56.53061
 2018-Oct-27 05:22     11 04 20.550821 +08 45 56.29632
 2018-Oct-27 05:23     11 04 20.593325 +08 45 56.06203
 2018-Oct-27 05:24     11 04 20.635829 +08 45 55.82775
 2018-Oct-27 05:25     11 04 20.678335 +08 45 55.59348
 2018-Oct-27 05:26     11 04 20.720842 +08 45 55.35922
 2018-Oct-27 05:27     11 04 20.763349 +08 45 55.12496
 2018-Oct-27 05:28     11 04 20.805858 +08 45 54.89071
 2018-Oct-27 05:29     11 04 20.848367 +08 45 54.65646
 2018-Oct-27 05:30     11 04 20.890877 +08 45 54.42222
 2018-Oct-27 05:31     11 04 20.933388 +08 45 54.18799
 2018-Oct-27 05:32     11 04 20.975900 +08 45 53.95376
 2018-Oct-27 05:33     11 04 21.018413 +08 45 53.71954
 2018-Oct-27 05:34     11 04 21.060926 +08 45 53.48533
 2018-Oct-27 05:35     11 04 21.103441 +08 45 53.25112
 2018-Oct-27 05:36     11 04 21.145956 +08 45 53.01692
 2018-Oct-27 05:37     11 04 21.188472 +08 45 52.78273
 2018-Oct-27 05:38     11 04 21.230988 +08 45 52.54854
 2018-Oct-27 05:39     11 04 21.273506 +08 45 52.31436
 2018-Oct-27 05:40     11 04 21.316024 +08 45 52.08019
 2018-Oct-27 05:41     11 04 21.358543 +08 45 51.84602
 2018-Oct-27 05:42     11 04 21.401063 +08 45 51.61186
 2018-Oct-27 05:43     11 04 21.443584 +08 45 51.37771
 2018-Oct-27 05:44  m  11 04 21.486105 +08 45 51.14356
 2018-Oct-27 05:45  m  11 04 21.528627 +08 45 50.90942
 2018-Oct-27 05:46  m  11 04 21.571150 +08 45 50.67529
 2018-Oct-27 05:47  m  11 04 21.613673 +08 45 50.44116
 2018-Oct-27 05:48  m  11 04 21.656197 +08 45 50.20704
 2018-Oct-27 05:49  m  11 04 21.698722 +08 45 49.97293
 2018-Oct-27 05:50  m  11 04 21.741247 +08 45 49.73882
 2018-Oct-27 05:51  m  11 04 21.783773 +08 45 49.50472
 2018-Oct-27 05:52  m  11 04 21.826300 +08 45 49.27063
 2018-Oct-27 05:53  m  11 04 21.868827 +08 45 49.03654
 2018-Oct-27 05:54  m  11 04 21.911355 +08 45 48.80246
 2018-Oct-27 05:55  m  11 04 21.953883 +08 45 48.56839
 2018-Oct-27 05:56  m  11 04 21.996413 +08 45 48.33432
 2018-Oct-27 05:57  m  11 04 22.038942 +08 45 48.10026
 2018-Oct-27 05:58  m  11 04 22.081472 +08 45 47.86621
 2018-Oct-27 05:59  m  11 04 22.124003 +08 45 47.63216
 2018-Oct-27 06:00  m  11 04 22.166535 +08 45 47.39812
 2018-Oct-27 06:01  m  11 04 22.209067 +08 45 47.16409
 2018-Oct-27 06:02  m  11 04 22.251599 +08 45 46.93006
